{
  "type": "FeatureCollection",
  "features": [
    {
      "type": "Feature",
      "geometry": {
        "type": "Point",
        "coordinates": [
          115.654963,
          -31.411473
        ]
      },
      "properties": {
        "id": "alert-17945367/66ff82cf-0132-4d2f-98d9-0941a6f19d30",
        "city": "",
        "street": "SR60 - Indian Ocean Dr",
        "type": "POLICE",
        "subtype": "",
        "nThumbsUp": 1,
        "pub_ts": "2026-08-26T06:09:05Z",
        "comment_first_ts": "2026-08-26T06:11:56Z",
        "comment_last_ts": "2026-08-26T06:11:56Z"
      }
    }
  ]
}